FLOCK 3P-47             
1 42032U 17008CN  17256.91987913  .00002126  00000-0  93386-4 0  9999
2 42032  97.4877 318.0661 0006475 258.9134 101.1375 15.23026900 31868
FLOCK 3P-44             
1 42033U 17008CP  17257.11080209  .00008204  00000-0  35088-3 0  9992
2 42033  97.4880 318.2758 0006491 260.8474  99.2029 15.23075768 30643
FLOCK 3P-64             
1 42034U 17008CQ  17256.91277475  .00003802  00000-0  16438-3 0  9990
2 42034  97.4875 318.0699 0006336 261.2644  98.7875 15.23068236 32032
FLOCK 3P-63             
1 42035U 17008CR  17257.37172233  .00003012  00000-0  13089-3 0  9990
2 42035  97.4875 318.5265 0006355 259.3088 100.7433 15.23058765 30070
FLOCK 3P-62             
1 42036U 17008CS  17256.90057119  .00003437  00000-0  14860-3 0  9993
2 42036  97.4876 318.0871 0006425 263.5405  96.5100 15.23127539 31203
FLOCK 3P-38             
1 42037U 17008CT  17257.10712455  .00006465  00000-0  27726-3 0  9997
2 42037  97.4876 318.2675 0006040 261.1476  98.9077 15.23070610 32019
FLOCK 3P-39             
1 42038U 17008CU  17257.17085280  .00006596  00000-0  28326-3 0  9996
2 42038  97.4871 318.3270 0006254 261.3011  98.7517 15.23017273 31978
FLOCK 3P-15             
1 42039U 17008CV  17257.10912952  .00005087  00000-0  21918-3 0  9999
2 42039  97.4875 318.2648 0006152 261.1403  98.9137 15.23015828 31245
FLOCK 3P-13             
1 42040U 17008CW  17256.90637950  .00002639  00000-0  11525-3 0  9993
2 42040  97.4877 318.0798 0006131 262.7208  97.3332 15.23005468 31205
FLOCK 3P-55             
1 42041U 17008CX  17256.88498831  .00002302  00000-0  10065-3 0  9999
2 42041  97.4876 318.1047 0005833 268.4899  91.5669 15.23097134 32043
FLOCK 3P-56             
1 42042U 17008CY  17257.14278379  .00004450  00000-0  19023-3 0  9992
2 42042  97.4873 318.3642 0005850 265.9436  94.1132 15.23359311 31874
FLOCK 3P-81             
1 42043U 17008CZ  17256.60420405  .00005375  00000-0  23128-3 0  9990
2 42043  97.4901 317.7910 0006881 242.8627 117.1908 15.23034632 31175
FLOCK 3P-87             
1 42044U 17008DA  17257.20406204  .00003099  00000-0  13469-3 0  9997
2 42044  97.4896 318.3593 0007131 236.7991 123.2562 15.23025699 31412
FLOCK 3P-29             
1 42045U 17008DB  17257.40288681  .00005128  00000-0  22074-3 0  9994
2 42045  97.4879 318.5008 0006902 231.7415 128.3201 15.23041349 31290
FLOCK 3P-82             
1 42046U 17008DC  17256.94454037  .00003156  00000-0  13707-3 0  9995
2 42046  97.4898 318.0985 0007247 238.7666 121.2861 15.23040412 31271
FLOCK 3P-78             
1 42047U 17008DD  17256.87467164  .00003429  00000-0  14865-3 0  9992
2 42047  97.4900 318.0403 0007043 237.7711 122.2844 15.23041019 31192
FLOCK 3P-74             
1 42048U 17008DE  17256.94886510  .00003969  00000-0  17182-3 0  9995
2 42048  97.4902 318.1016 0007318 238.8837 121.1682 15.22988152 31209
FLOCK 3P-31             
1 42049U 17008DF  17257.21236420  .00002879  00000-0  12550-3 0  9999
2 42049  97.4880 318.2983 0006944 234.3878 125.6712 15.22984199 30703
FLOCK 3P-83             
1 42050U 17008DG  17256.95056467  .00005068  00000-0  21877-3 0  9997
2 42050  97.4897 318.0899 0007228 239.4411 120.6112 15.22953752 31938
FLOCK 3P-72             
1 42051U 17008DH  17257.39137562  .00004940  00000-0  21298-3 0  9998
2 42051  97.4905 318.5866 0006784 235.4608 124.5988 15.23009002 29592
LEMUR-2-REDFERN-GOES    
1 42059U 98067LA  17256.64992418  .00025346  00000-0  30312-3 0  9996
2 42059  51.6386 312.1714 0006727 279.0469  80.9763 15.60802860 29818
LEMUR-2-TRUTNA          
1 42067U 98067LC  17257.40639363  .00029799  00000-0  29474-3 0  9990
2 42067  51.6381 305.9648 0005529 294.9310  65.1110 15.65585913 29798
LEMUR-2-AUSTINTACIOUS   
1 42068U 98067LD  17257.18842232  .00029686  00000-0  33781-3 0  9998
2 42068  51.6389 309.0182 0006234 281.8214  78.2081 15.62007165 29839
LEMUR-2-TRUTNAHD        
1 42069U 98067LE  17256.76012090  .00026434  00000-0  31022-3 0  9997
2 42069  51.6397 311.4200 0005895 279.5854  80.4473 15.61275529 29811
HAVELSAT                
1 42700U 98067LH  17257.42838830  .00015003  00000-0  19976-3 0  9995
2 42700  51.6399 311.3701 0006237 309.7268  50.3174 15.58359659 18844
SOMP 2                  
1 42701U 98067LJ  17257.37552785  .00013986  00000-0  18890-3 0  9994
2 42701  51.6399 311.7713 0006116 309.3407  50.7042 15.58044274 18829
COLUMBIA                
1 42702U 98067LK  17257.26485717  .00033517  00000-0  38348-3 0  9995
2 42702  51.6388 311.0270 0006466 316.8676  43.1811 15.61800992 18751
SGSAT                   
1 42703U 98067LL  17257.37005571  .00026582  00000-0  32153-3 0  9996
2 42703  51.6382 310.9773 0001828 306.9228  53.1597 15.60497085 18758
CXBN-2                  
1 42704U 98067LM  17257.19042956  .00019982  00000-0  26693-3 0  9993
2 42704  51.6401 312.7835 0001316 285.2818  74.8029 15.58050497 18722
ICECUBE                 
1 42705U 98067LN  17257.42954612  .00019893  00000-0  25780-3 0  9998
2 42705  51.6410 311.3896 0001167 283.1983  76.8880 15.58864114 18826
PHOENIX                 
1 42706U 98067LP  17257.24252886  .00014973  00000-0  20070-3 0  9994
2 42706  51.6397 312.3847 0001447 320.9882  39.1005 15.58196231 18725
X-CUBESAT               
1 42707U 98067LQ  17257.17837135  .00020831  00000-0  27587-3 0  9993
2 42707  51.6389 312.7014 0001532 322.5599  37.5286 15.58253131 18709
QBEE50-LTU-OC           
1 42708U 98067LR  17257.30984754  .00014909  00000-0  20001-3 0  9992
2 42708  51.6391 312.0798 0001584 320.5581  39.5295 15.58177875 18680
ALTAIR PATHFINDER       
1 42711U 98067LS  17257.23742011  .00010782  00000-0  15352-3 0  9994
2 42711  51.6398 313.0930 0003381 238.0906 121.9757 15.56912630 18370
SHARC                   
1 42712U 98067LT  17257.43042086  .00008659  00000-0  12533-3 0  9990
2 42712  51.6405 312.1380 0001473 248.0465 112.0370 15.56767191 18642
ZA-AEROSAT              
1 42713U 98067LU  17257.40046574  .00011054  00000-0  15366-3 0  9994
2 42713  51.6399 311.9360 0001250 246.1878 113.8984 15.57535210 18400
LINK                    
1 42714U 98067LV  17257.37932582  .00018275  00000-0  23980-3 0  9997
2 42714  51.6391 311.7911 0001273 282.6969  77.3881 15.58595637 18516
CSUNSAT 1               
1 42715U 98067LW  17257.40650937  .00013277  00000-0  18277-3 0  9993
2 42715  51.6397 311.9717 0003223 228.9304 131.1410 15.57594662 18403
UPSAT                   
1 42716U 98067LX  17256.65882065  .00028575  00000-0  37072-3 0  9990
2 42716  51.6397 315.2332 0004817 314.5514  45.5085 15.58595845 18422
SPACECUBE               
1 42717U 98067LY  17257.38392087  .00014736  00000-0  19879-3 0  9991
2 42717  51.6398 311.8243 0004673 315.5986  44.4631 15.58032644 17776
HOOPOE                  
1 42718U 98067LZ  17257.37401622  .00015733  00000-0  20929-3 0  9993
2 42718  51.6394 311.7607 0004688 315.8501  44.2117 15.58348120 17774
CHALLENGER              
1 42721U 98067MA  17257.37280989  .00021607  00000-0  27774-3 0  9990
2 42721  51.6388 311.7464 0007028 292.8188  67.2062 15.59001353 17474
NJUST-1                 
1 42722U 98067MB  17257.23091024  .00013137  00000-0  18300-3 0  9990
2 42722  51.6396 313.0503 0007023 287.9884  72.0343 15.57269875 17442
UNSW-ECO                
1 42723U 98067MC  17257.40125915  .00015446  00000-0  20753-3 0  9997
2 42723  51.6399 311.9413 0006867 290.8640  69.1616 15.58086664 17456
DUTHSAT                 
1 42724U 98067MD  17257.38265197  .00019949  00000-0  25892-3 0  9993
2 42724  51.6399 311.8153 0006288 297.9421  62.0934 15.58806448 17375
LILACSAT-1              
1 42725U 98067ME  17257.42387101  .00015024  00000-0  20691-3 0  9991
2 42725  51.6399 312.0912 0006112 294.2819  65.7534 15.57451634 17377
NSIGHT-1                
1 42726U 98067MF  17257.39047726  .00008063  00000-0  11897-3 0  9997
2 42726  51.6406 312.6194 0006120 291.6766  68.3574 15.56344990 17374
SNUSAT-1                
1 42727U 98067MG  17257.42179764  .00013477  00000-0  18590-3 0  9992
2 42727  51.6389 312.0695 0006676 250.5728 109.4543 15.57510241 17348
QBITO                   
1 42728U 98067MH  17257.40699284  .00015159  00000-0  20572-3 0  9997
2 42728  51.6408 311.9826 0003737 310.4053  49.6613 15.57848825 17184
AALTO-2                 
1 42729U 98067MJ  17257.40682275  .00015037  00000-0  20416-3 0  9992
2 42729  51.6400 311.9778 0003732 310.4659  49.6007 15.57844326 17190
SUSAT                   
1 42730U 98067MK  17257.41176093  .00014191  00000-0  19417-3 0  9990
2 42730  51.6399 312.0093 0003728 307.9687  52.0968 15.57689934 17183
I-INSPIRE II            
1 42731U 98067ML  17257.33297283  .00016508  00000-0  21986-3 0  9995
2 42731  51.6386 312.2255 0005666 236.8096 123.2353 15.58270996 17228
POLYITAN-2-SAU          
1 42732U 98067MM  17257.40380893  .00013771  00000-0  18690-3 0  9991
2 42732  51.6390 311.9484 0005905 235.2582 124.7854 15.57930237 17236
SNUSAT-1B               
1 42733U 98067MN  17257.41220919  .00014311  00000-0  19539-3 0  9999
2 42733  51.6393 312.0051 0005858 237.0491 122.9939 15.57733199 17230
EXALTA-1                
1 42734U 98067MP  17257.20515299  .00013999  00000-0  18795-3 0  9999
2 42734  51.6389 312.8739 0007764 262.2946  97.7165 15.58193082 17153
AOXIANG-1               
1 42735U 98067MQ  17257.16391369  .00017838  00000-0  24520-3 0  9994
2 42735  51.6395 313.3519 0007577 283.4747  76.5400 15.57344362 18560
BEEAGLESAT              
1 42736U 98067MR  17257.41775267  .00013568  00000-0  18711-3 0  9997
2 42736  51.6396 312.0474 0007454 284.4777  75.5388 15.57506104 17293
ATLANTIS                
1 42737U 98067MS  17257.33055909  .00028794  00000-0  34503-3 0  9997
2 42737  51.6380 311.4586 0007213 293.5928  66.4308 15.60672642 17180
LEMUR-2-ANGELA          
1 42752U 17019B   17257.22819559  .00003438  00000-0  13763-3 0  9992
2 42752  51.6412 333.7271 0010521 301.6392  58.3561 15.27770502 14908
